{"type": "FeatureCollection", "features": [ {"type": "Feature", "properties": {"norad_id": 29919, "name": "FENGYUN 1C DEB", "group": "fengyun-1c-debris", "lat": -58.83835266172047, "lon": -57.064685428468906, "alt_km": 995.8329427069684, "timestamp": "2025-12-08T08:59:01.037996+00:00", "meta": {"OBJECT_NAME": "FENGYUN 1C DEB", "OBJECT_ID": "1999-025HR", "EPOCH": "2025-12-07T23:44:51.181728", "MEAN_MOTION": 13.85120187, "ECCENTRICITY": 0.01375842, "INCLINATION": 98.4789, "RA_OF_ASC_NODE": 136.8681, "ARG_OF_PERICENTER": 356.8414, "MEAN_ANOMALY": 126.5159, "EPHEMERIS_TYPE": 0, "CLASSIFICATION_TYPE": "U", "NORAD_CAT_ID": 29919, "ELEMENT_SET_NO": 999, "REV_AT_EPOCH": 95469, "BSTAR": 0.00024711765, "MEAN_MOTION_DOT": 2.63e-06, "MEAN_MOTION_DDOT": 0}, "tle": {"line1": "1 29919U 99025HR  25341.98948127  .00000263  00000+0  24712-3 0  9997", "line2": "2 29919  98.4789 136.8681 0137584 356.8414 126.5159 13.85120187954697"}}, "geometry": {"type": "Point", "coordinates": [-57.064685428468906, -58.83835266172047]}}, {"type": "Feature", "properties": {"norad_id": 29920, "name": "FENGYUN 1C DEB", "group": "fengyun-1c-debris", "lat": -5.211824448928999, "lon": 16.42987008829754, "alt_km": 912.1253466581402, "timestamp": "2025-12-08T08:59:01.038007+00:00", "meta": {"OBJECT_NAME": "FENGYUN 1C DEB", "OBJECT_ID": "1999-025HS", "EPOCH": "2025-12-07T13:16:21.826560", "MEAN_MOTION": 14.03627914, "ECCENTRICITY": 0.0125509, "INCLINATION": 98.39, "RA_OF_ASC_NODE": 196.443, "ARG_OF_PERICENTER": 295.6111, "MEAN_ANOMALY": 63.2132, "EPHEMERIS_TYPE": 0, "CLASSIFICATION_TYPE": "U", "NORAD_CAT_ID": 29920, "ELEMENT_SET_NO": 999, "REV_AT_EPOCH": 96215, "BSTAR": 0.0020644275, "MEAN_MOTION_DOT": 3.437e-05, "MEAN_MOTION_DDOT": 0}, "tle": {"line1": "1 29920U 99025HS  25341.55303040  .00003437  00000+0  20644-2 0  9996", "line2": "2 29920  98.3900 196.4430 0125509 295.6111  63.2132 14.03627914962154"}}, "geometry": {"type": "Point", "coordinates": [16.42987008829754, -5.211824448928999]}}, {"type": "Feature", "properties": {"norad_id": 29921, "name": "FENGYUN 1C DEB", "group": "fengyun-1c-debris", "lat": -25.680525755439344, "lon": -7.117822937444058, "alt_km": 886.5334411368531, "timestamp": "2025-12-08T08:59:01.038017+00:00", "meta": {"OBJECT_NAME": "FENGYUN 1C DEB", "OBJECT_ID": "1999-025HT", "EPOCH": "2025-12-07T23:09:42.930144", "MEAN_MOTION": 14.06633426, "ECCENTRICITY": 0.004646, "INCLINATION": 98.7868, "RA_OF_ASC_NODE": 348.2196, "ARG_OF_PERICENTER": 82.8714, "MEAN_ANOMALY": 340.5584, "EPHEMERIS_TYPE": 0, "CLASSIFICATION_TYPE": "U", "NORAD_CAT_ID": 29921, "ELEMENT_SET_NO": 999, "REV_AT_EPOCH": 96809, "BSTAR": 0.0006754604, "MEAN_MOTION_DOT": 1.089e-05, "MEAN_MOTION_DDOT": 0}, "tle": {"line1": "1 29921U 99025HT  25341.96508021  .00001089  00000+0  67546-3 0  9992", "line2": "2 29921  98.7868 348.2196 0046460  82.8714 340.5584 14.06633426968090"}}, "geometry": {"type": "Point", "coordinates": [-7.117822937444058, -25.680525755439344]}}, {"type": "Feature", "properties": {"norad_id": 29922, "name": "FENGYUN 1C DEB", "group": "fengyun-1c-debris", "lat": -65.42485756320005, "lon": -160.76347222881412, "alt_km": 951.1877604398887, "timestamp": "2025-12-08T08:59:01.038028+00:00", "meta": {"OBJECT_NAME": "FENGYUN 1C DEB", "OBJECT_ID": "1999-025HU", "EPOCH": "2025-12-07T16:21:04.583520", "MEAN_MOTION": 13.9857792, "ECCENTRICITY": 0.00936014, "INCLINATION": 99.1365, "RA_OF_ASC_NODE": 39.1498, "ARG_OF_PERICENTER": 21.0054, "MEAN_ANOMALY": 339.4915, "EPHEMERIS_TYPE": 0, "CLASSIFICATION_TYPE": "U", "NORAD_CAT_ID": 29922, "ELEMENT_SET_NO": 999, "REV_AT_EPOCH": 96370, "BSTAR": 0.00029873864, "MEAN_MOTION_DOT": 4e-06, "MEAN_MOTION_DDOT": 0}, "tle": {"line1": "1 29922U 99025HU  25341.68130305  .00000400  00000+0  29874-3 0  9996", "line2": "2 29922  99.1365  39.1498 0093601  21.0054 339.4915 13.98577920963704"}}, "geometry": {"type": "Point", "coordinates": [-160.76347222881412, -65.42485756320005]}}, {"type": "Feature", "properties": {"norad_id": 29923, "name": "FENGYUN 1C DEB", "group": "fengyun-1c-debris", "lat": -28.855985563891558, "lon": 165.9558579423179, "alt_km": 840.7563657726214, "timestamp": "2025-12-08T08:59:01.038038+00:00", "meta": {"OBJECT_NAME": "FENGYUN 1C DEB", "OBJECT_ID": "1999-025HV", "EPOCH": "2025-12-07T23:39:32.128992", "MEAN_MOTION": 14.138795, "ECCENTRICITY": 0.00174248, "INCLINATION": 98.6883, "RA_OF_ASC_NODE": 350.4116, "ARG_OF_PERICENTER": 182.7623, "MEAN_ANOMALY": 209.77, "EPHEMERIS_TYPE": 0, "CLASSIFICATION_TYPE": "U", "NORAD_CAT_ID": 29923, "ELEMENT_SET_NO": 999, "REV_AT_EPOCH": 97208, "BSTAR": 0.00069008913, "MEAN_MOTION_DOT": 1.267e-05, "MEAN_MOTION_DDOT": 0}, "tle": {"line1": "1 29923U 99025HV  25341.98578853  .00001267  00000+0  69009-3 0  9990", "line2": "2 29923  98.6883 350.4116 0017424 182.7623 209.7700 14.13879500972085"}}, "geometry": {"type": "Point", "coordinates": [165.9558579423179, -28.855985563891558]}}, {"type": "Feature", "properties": {"norad_id": 29924, "name": "FENGYUN 1C DEB", "group": "fengyun-1c-debris", "lat": -77.92182956311329, "lon": 129.54109375922602, "alt_km": 851.9866710611932, "timestamp": "2025-12-08T08:59:01.038049+00:00", "meta": {"OBJECT_NAME": "FENGYUN 1C DEB", "OBJECT_ID": "1999-025HW", "EPOCH": "2025-12-07T23:30:04.853376", "MEAN_MOTION": 14.08887992, "ECCENTRICITY": 0.00258634, "INCLINATION": 98.7345, "RA_OF_ASC_NODE": 355.0844, "ARG_OF_PERICENTER": 271.654, "MEAN_ANOMALY": 147.2013, "EPHEMERIS_TYPE": 0, "CLASSIFICATION_TYPE": "U", "NORAD_CAT_ID": 29924, "ELEMENT_SET_NO": 999, "REV_AT_EPOCH": 97141, "BSTAR": 0.00017866489, "MEAN_MOTION_DOT": 2.67e-06, "MEAN_MOTION_DDOT": 0}, "tle": {"line1": "1 29924U 99025HW  25341.97922284  .00000267  00000+0  17866-3 0  9994", "line2": "2 29924  98.7345 355.0844 0025863 271.6540 147.2013 14.08887992971418"}}, "geometry": {"type": "Point", "coordinates": [129.54109375922602, -77.92182956311329]}}, {"type": "Feature", "properties": {"norad_id": 29926, "name": "FENGYUN 1C DEB", "group": "fengyun-1c-debris", "lat": 71.38950280053045, "lon": 177.09290354764798, "alt_km": 931.7841630547382, "timestamp": "2025-12-08T08:59:01.038059+00:00", "meta": {"OBJECT_NAME": "FENGYUN 1C DEB", "OBJECT_ID": "1999-025HY", "EPOCH": "2025-12-07T22:40:57.610272", "MEAN_MOTION": 14.33368946, "ECCENTRICITY": 0.02485835, "INCLINATION": 98.2836, "RA_OF_ASC_NODE": 331.0468, "ARG_OF_PERICENTER": 314.5942, "MEAN_ANOMALY": 97.3184, "EPHEMERIS_TYPE": 0, "CLASSIFICATION_TYPE": "U", "NORAD_CAT_ID": 29926, "ELEMENT_SET_NO": 999, "REV_AT_EPOCH": 98512, "BSTAR": 0.00063055328, "MEAN_MOTION_DOT": 2.404e-05, "MEAN_MOTION_DDOT": 0}, "tle": {"line1": "1 29926U 99025HY  25341.94511123  .00002404  00000+0  63055-3 0  9995", "line2": "2 29926  98.2836 331.0468 0248583 314.5942  97.3184 14.33368946985123"}}, "geometry": {"type": "Point", "coordinates": [177.09290354764798, 71.38950280053045]}}, {"type": "Feature", "properties": {"norad_id": 29927, "name": "FENGYUN 1C DEB", "group": "fengyun-1c-debris", "lat": -49.620886668621466, "lon": 16.642675545410572, "alt_km": 653.1548470369553, "timestamp": "2025-12-08T08:59:01.038069+00:00", "meta": {"OBJECT_NAME": "FENGYUN 1C DEB", "OBJECT_ID": "1999-025HZ", "EPOCH": "2025-12-07T12:44:21.451776", "MEAN_MOTION": 14.74266959, "ECCENTRICITY": 0.0017647, "INCLINATION": 99.0838, "RA_OF_ASC_NODE": 4.8546, "ARG_OF_PERICENTER": 226.8568, "MEAN_ANOMALY": 288.2532, "EPHEMERIS_TYPE": 0, "CLASSIFICATION_TYPE": "U", "NORAD_CAT_ID": 29927, "ELEMENT_SET_NO": 999, "REV_AT_EPOCH": 98570, "BSTAR": 0.0044873373, "MEAN_MOTION_DOT": 0.00029814, "MEAN_MOTION_DDOT": 0}, "tle": {"line1": "1 29927U 99025HZ  25341.53080384  .00029814  00000+0  44873-2 0  9991", "line2": "2 29927  99.0838   4.8546 0017647 226.8568 288.2532 14.74266959985709"}}, "geometry": {"type": "Point", "coordinates": [16.642675545410572, -49.620886668621466]}}, {"type": "Feature", "properties": {"norad_id": 29928, "name": "FENGYUN 1C DEB", "group": "fengyun-1c-debris", "lat": -25.499408808811403, "lon": 11.147062773560357, "alt_km": 1021.1847546411882, "timestamp": "2025-12-08T08:59:01.038080+00:00", "meta": {"OBJECT_NAME": "FENGYUN 1C DEB", "OBJECT_ID": "1999-025JA", "EPOCH": "2025-12-07T20:08:37.004352", "MEAN_MOTION": 13.88073475, "ECCENTRICITY": 0.01434776, "INCLINATION": 99.5847, "RA_OF_ASC_NODE": 5.9753, "ARG_OF_PERICENTER": 116.0794, "MEAN_ANOMALY": 67.1868, "EPHEMERIS_TYPE": 0, "CLASSIFICATION_TYPE": "U", "NORAD_CAT_ID": 29928, "ELEMENT_SET_NO": 999, "REV_AT_EPOCH": 95423, "BSTAR": 0.00099674291, "MEAN_MOTION_DOT": 1.244e-05, "MEAN_MOTION_DDOT": 0}, "tle": {"line1": "1 29928U 99025JA  25341.83931718  .00001244  00000+0  99674-3 0  9998", "line2": "2 29928  99.5847   5.9753 0143477 116.0794  67.1868 13.88073475954232"}}, "geometry": {"type": "Point", "coordinates": [11.147062773560357, -25.499408808811403]}}, {"type": "Feature", "properties": {"norad_id": 29929, "name": "FENGYUN 1C DEB", "group": "fengyun-1c-debris", "lat": -8.914286464474555, "lon": -96.78002881083435, "alt_km": 983.7942133291963, "timestamp": "2025-12-08T08:59:01.038090+00:00", "meta": {"OBJECT_NAME": "FENGYUN 1C DEB", "OBJECT_ID": "1999-025JB", "EPOCH": "2025-12-07T17:44:51.254304", "MEAN_MOTION": 14.01339031, "ECCENTRICITY": 0.01309444, "INCLINATION": 98.6239, "RA_OF_ASC_NODE": 261.256, "ARG_OF_PERICENTER": 190.3613, "MEAN_ANOMALY": 199.4259, "EPHEMERIS_TYPE": 0, "CLASSIFICATION_TYPE": "U", "NORAD_CAT_ID": 29929, "ELEMENT_SET_NO": 999, "REV_AT_EPOCH": 95886, "BSTAR": 0.0016331739, "MEAN_MOTION_DOT": 2.612e-05, "MEAN_MOTION_DDOT": 0}, "tle": {"line1": "1 29929U 99025JB  25341.73948211  .00002612  00000+0  16332-2 0  9993", "line2": "2 29929  98.6239 261.2560 0130944 190.3613 199.4259 14.01339031958866"}}, "geometry": {"type": "Point", "coordinates": [-96.78002881083435, -8.914286464474555]}}]}